NORAD_CAT_ID,OBJECT_NAME,OBJECT_TYPE,EPOCH,MEAN_MOTION,ECCENTRICITY,INCLINATION,RA_OF_ASC_NODE,ARG_OF_PERICENTER,MEAN_ANOMALY,BSTAR,MEAN_MOTION_DOT,MEAN_MOTION_DDOT,TLE_LINE0,TLE_LINE1,TLE_LINE2,SEMIMAJOR_AXIS,PERIOD,APOGEE,PERIGEE,DECAYED
51147.0,STARLINK-3352,PAYLOAD,2022-12-18 00:10:56,15.08815567,0.0002607,53.2142,195.9534,30.0329,330.0813,-5.1891e-05,-1.114e-05,0.0,0 STARLINK-3352,1 51147U 22005AV  22352.00759845 -.00001114  00000-0 -51891-4 0  9996,2 51147  53.2142 195.9534 0002607  30.0329 330.0813 15.08815567 51926,6917.955,95.439,541.624,538.0169999999998,0.0
51147.0,STARLINK-3352,PAYLOAD,2022-12-18 06:32:28,15.08829425,0.0002603,53.2145,194.7641,30.056,330.0581,0.00027987,4.167e-05,0.0,0 STARLINK-3352,1 51147U 22005AV  22352.27255655  .00004167  00000-0  27987-3 0  9992,2 51147  53.2145 194.7641 0002603  30.0560 330.0581 15.08829425 51962,6917.913000000001,95.438,541.578,537.977,0.0
51147.0,STARLINK-3352,PAYLOAD,2022-12-18 19:15:33,15.08839031,0.0002529,53.2146,192.3849,31.3358,328.7784,0.0003203,4.813e-05,0.0,0 STARLINK-3352,1 51147U 22005AV  22352.80247535  .00004813  00000-0  32030-3 0  9992,2 51147  53.2146 192.3849 0002529  31.3358 328.7784 15.08839031 50921,6917.8830000000025,95.438,541.498,537.999,0.0
51147.0,STARLINK-3352,PAYLOAD,2022-12-19 06:23:16,15.08827591,0.0002795,53.2141,190.3032,33.3879,326.7289,5.3299e-05,5.6e-06,0.0,0 STARLINK-3352,1 51147U 22005AV  22353.26616305  .00000560  00000-0  53299-4 0  9994,2 51147  53.2141 190.3032 0002795  33.3879 326.7289 15.08827591 52112,6917.918000000002,95.438,541.717,537.85,0.0
51147.0,STARLINK-3352,PAYLOAD,2022-12-19 19:06:21,15.08830282,0.000265,53.2141,187.9236,28.7961,331.3177,0.00017531,2.502e-05,0.0,0 STARLINK-3352,1 51147U 22005AV  22353.79608545  .00002502  00000-0  17531-3 0  9995,2 51147  53.2141 187.9236 0002650  28.7961 331.3177 15.08830282 51073,6917.91,95.438,541.6080000000002,537.942,0.0
51147.0,STARLINK-3352,PAYLOAD,2022-12-20 12:35:36,15.08839985,0.0002668,53.214,184.6525,29.3196,330.7945,0.0001085,1.439e-05,0.0,0 STARLINK-3352,1 51147U 22005AV  22354.52472437  .00001439  00000-0  10850-3 0  9991,2 51147  53.2140 184.6525 0002668  29.3196 330.7945 15.08839985 52305,6917.88,95.438,541.591,537.9,0.0
51147.0,STARLINK-3352,PAYLOAD,2022-12-21 12:26:24,15.0882862,0.0002828,53.2139,180.1927,26.1626,333.9509,8.9255e-05,1.132e-05,0.0,0 STARLINK-3352,1 51147U 22005AV  22355.51833641  .00001132  00000-0  89255-4 0  9995,2 51147  53.2139 180.1927 0002828  26.1626 333.9509 15.08828620 52452,6917.915,95.438,541.737,537.8240000000002,0.0
51147.0,STARLINK-3352,PAYLOAD,2022-12-22 10:41:48,15.08835797,0.0003041,53.2136,176.0293,28.182,331.9336,0.00021415,3.121e-05,0.0,0 STARLINK-3352,1 51147U 22005AV  22356.44570109  .00003121  00000-0  21415-3 0  9998,2 51147  53.2136 176.0293 0003041  28.1820 331.9336 15.08835797 51475,6917.893,95.438,541.862,537.655,0.0
51147.0,STARLINK-3352,PAYLOAD,2022-12-22 18:38:44,15.08838752,0.0003061,53.2133,174.542,29.0219,331.0943,0.00026831,3.984e-05,0.0,0 STARLINK-3352,1 51147U 22005AV  22356.77690171  .00003984  00000-0  26831-3 0  9990,2 51147  53.2133 174.5420 0003061  29.0219 331.0943 15.08838752 52640,6917.884,95.438,541.867,537.632,0.0
51147.0,STARLINK-3352,PAYLOAD,2022-12-23 12:07:58,15.08846435,0.0003176,53.2133,171.2707,29.3744,330.7426,0.00033193,4.999e-05,0.0,0 STARLINK-3352,1 51147U 22005AV  22357.50554046  .00004999  00000-0  33193-3 0  9998,2 51147  53.2133 171.2707 0003176  29.3744 330.7426 15.08846435 51632,6917.861,95.437,541.923,537.529,0.0
51147.0,STARLINK-3352,PAYLOAD,2022-12-23 18:29:31,15.08849244,0.0003161,53.2135,170.081,30.1836,329.9338,0.00032783,4.934e-05,0.0,0 STARLINK-3352,1 51147U 22005AV  22357.77049844  .00004934  00000-0  32783-3 0  9995,2 51147  53.2135 170.0810 0003161  30.1836 329.9338 15.08849244 51679,6917.852,95.437,541.904,537.53,0.0
51147.0,STARLINK-3352,PAYLOAD,2022-12-24 11:58:45,15.08851499,0.0003212,53.2137,166.8096,31.5797,328.5387,0.0002105,3.064e-05,0.0,0 STARLINK-3352,1 51147U 22005AV  22358.49913309  .00003064  00000-0  21050-3 0  9999,2 51147  53.2137 166.8096 0003212  31.5797 328.5387 15.08851499 52909,6917.845,95.437,541.932,537.488,0.0
51147.0,STARLINK-3352,PAYLOAD,2022-12-24 19:55:40,15.08842563,0.0003234,53.214,165.32299999999995,31.6293,328.4892,4.425300000000001e-05,4.16e-06,0.0,0 STARLINK-3352,1 51147U 22005AV  22358.83033559  .00000416  00000-0  44253-4 0  9996,2 51147  53.2140 165.3230 0003234  31.6293 328.4892 15.08842563 51836,6917.873000000001,95.437,541.975,537.5,0.0
51147.0,STARLINK-3352,PAYLOAD,2022-12-25 03:52:36,15.08842497,0.0003247,53.2141,163.8361,32.3637,327.7554,1.509e-05,-4.9e-07,0.0,0 STARLINK-3352,1 51147U 22005AV  22359.16153445 -.00000049  00000-0  15090-4 0  9990,2 51147  53.2141 163.8361 0003247  32.3637 327.7554 15.08842497 53003,6917.873000000001,95.437,541.984,537.492,0.0
51147.0,STARLINK-3352,PAYLOAD,2022-12-25 11:49:32,15.08843711,0.0003183,53.2143,162.3489,32.556,327.5628,2.4423e-06,-2.5e-06,0.0,0 STARLINK-3352,1 51147U 22005AV  22359.49273219 -.00000250  00000-0  24423-5 0  9993,2 51147  53.2143 162.3489 0003183  32.5560 327.5628 15.08843711 51936,6917.869000000002,95.437,541.936,537.5319999999998,0.0
51147.0,STARLINK-3352,PAYLOAD,2022-12-25 18:11:04,15.08847179,0.0003188,53.2151,161.1598,33.7179,326.4016,7.4917e-05,9.04e-06,0.0,0 STARLINK-3352,1 51147U 22005AV  22359.75769071  .00000904  00000-0  74917-4 0  9995,2 51147  53.2151 161.1598 0003188  33.7179 326.4016 15.08847179 51972,6917.858,95.437,541.929,537.518,0.0
51147.0,STARLINK-3352,PAYLOAD,2022-12-26 11:40:19,15.08835399,0.0003326,53.2146,157.8889,36.0171,324.1045,-3.4433e-05,-8.37e-06,0.0,0 STARLINK-3352,1 51147U 22005AV  22360.48633893 -.00000837  00000-0 -34433-4 0  9995,2 51147  53.2146 157.8889 0003326  36.0171 324.1045 15.08835399 53209,6917.894,95.438,542.06,537.4590000000002,0.0
51147.0,STARLINK-3352,PAYLOAD,2022-12-26 19:37:15,15.08836911,0.0003252,53.2147,156.40200000000004,33.8923,326.2276,5.9043e-05,6.51e-06,0.0,0 STARLINK-3352,1 51147U 22005AV  22360.81753559  .00000651  00000-0  59043-4 0  9990,2 51147  53.2147 156.4020 0003252  33.8923 326.2276 15.08836911 52131,6917.89,95.438,542.005,537.505,0.0
51147.0,STARLINK-3352,PAYLOAD,2022-12-27 19:28:00,15.08852144,0.0003245,53.2152,151.9409,34.9779,325.1426,0.000106,1.399e-05,0.0,0 STARLINK-3352,1 51147U 22005AV  22361.81112263  .00001399  00000-0  10600-3 0  9997,2 51147  53.2152 151.9409 0003245  34.9779 325.1426 15.08852144 53403,6917.843000000003,95.437,541.953,537.4630000000002,0.0
51147.0,STARLINK-3352,PAYLOAD,2022-12-28 12:57:16,15.08831932,0.0003373999999999,53.2152,148.6697,34.2191,325.9018,5.5946e-05,6.02e-06,0.0,0 STARLINK-3352,1 51147U 22005AV  22362.53977613  .00000602  00000-0  55946-4 0  9994,2 51147  53.2152 148.6697 0003374  34.2191 325.9018 15.08831932 53518,6917.905,95.438,542.104,537.436,0.0
51147.0,STARLINK-3352,PAYLOAD,2022-12-29 09:37:17,15.08833425,0.0003013,53.2154,144.8032,36.7477,323.3721,-6.7077e-05,-1.356e-05,0.0,0 STARLINK-3352,1 51147U 22005AV  22363.40090007 -.00001356  00000-0 -67077-4 0  9991,2 51147  53.2154 144.8032 0003013  36.7477 323.3721 15.08833425 52527,6917.9,95.438,541.85,537.681,0.0
51147.0,STARLINK-3352,PAYLOAD,2022-12-29 19:09:36,15.08833993,0.0003002,53.2155,143.0185,39.6282,320.4929,-9.9919e-05,-1.878e-05,0.0,0 STARLINK-3352,1 51147U 22005AV  22363.79834260 -.00001878  00000-0 -99919-4 0  9999,2 51147  53.2155 143.0185 0003002  39.6282 320.4929 15.08833993 53701,6917.899,95.438,541.841,537.687,0.0
51147.0,STARLINK-3352,PAYLOAD,2022-12-30 09:28:04,15.08836476,0.00031,53.2155,140.3427,39.9851,320.1369,0.00012112,1.639e-05,0.0,0 STARLINK-3352,1 51147U 22005AV  22364.39449603  .00001639  00000-0  12112-3 0  9991,2 51147  53.2155 140.3427 0003100  39.9851 320.1369 15.08836476 52673,6917.891,95.438,541.901,537.612,0.0
51147.0,STARLINK-3352,PAYLOAD,2022-12-30 15:49:36,15.08845626,0.0003327,53.2146,139.1548,35.2936,324.8276,0.00016889,2.401e-05,0.0,0 STARLINK-3352,1 51147U 22005AV  22364.65945060  .00002401  00000-0  16889-3 0  9991,2 51147  53.2146 139.1548 0003327  35.2936 324.8276 15.08845626 53831,6917.863,95.437,542.03,537.427,0.0
51147.0,STARLINK-3352,PAYLOAD,2022-12-31 09:18:50,15.08852891,0.0003288,53.2149,135.8837,35.0236,325.0972,0.00033432,5.038e-05,0.0,0 STARLINK-3352,1 51147U 22005AV  22365.38808026  .00005038  00000-0  33432-3 0  9994,2 51147  53.2149 135.8837 0003288  35.0236 325.0972 15.08852891 53945,6917.840999999999,95.437,541.981,537.431,0.0
51147.0,STARLINK-3352,PAYLOAD,2022-12-31 15:40:23,15.08848949,0.0003273,53.214,134.6942,33.3073,326.8124,0.00027327,4.064e-05,0.0,0 STARLINK-3352,1 51147U 22005AV  22365.65304918  .00004064  00000-0  27327-3 0  9999,2 51147  53.2140 134.6942 0003273  33.3073 326.8124 15.08848949 52861,6917.853,95.437,541.982,537.4540000000002,0.0
51147.0,STARLINK-3352,PAYLOAD,2023-01-01 07:34:14,15.08841907,0.0003452,53.2135,131.7233,32.8563,327.2643,-2.1197e-05,-6.26e-06,0.0,0 STARLINK-3352,1 51147U 22005AV  23001.31545127 -.00000626  00000-0 -21197-4 0  9991,2 51147  53.2135 131.7233 0003452  32.8563 327.2643 15.08841907 54087,6917.875,95.437,542.128,537.352,0.0
51147.0,STARLINK-3352,PAYLOAD,2023-01-01 12:20:25,15.08825941,0.0003077,53.2155,130.8268,28.7727,331.3435,-0.00034787,-5.819e-05,0.0,0 STARLINK-3352,1 51147U 22005AV  23001.51417874 -.00005819  00000-0 -34787-3 0  9997,2 51147  53.2155 130.8268 0003077  28.7727 331.3435 15.08825941 54115,6917.9230000000025,95.438,541.9169999999998,537.66,0.0
51147.0,STARLINK-3352,PAYLOAD,2023-01-01 18:41:57,15.08823615,0.000339,53.2155,129.638,26.462,333.6545,-0.00032902,-5.520000000000003e-05,0.0,0 STARLINK-3352,1 51147U 22005AV  23001.77914288 -.00005520  00000-0 -32902-3 0  9992,2 51147  53.2155 129.6380 0003390  26.4620 333.6545 15.08823615 53034,6917.93,95.439,542.141,537.45,0.0
